[{"OBJECT_NAME":"ONEWEB-0327","OBJECT_ID":"2021-083L","EPOCH":"2026-03-09T19:57:16.761600","MEAN_MOTION":13.18683947,"ECCENTRICITY":0.00013872,"INCLINATION":87.9243,"RA_OF_ASC_NODE":355.1992,"ARG_OF_PERICENTER":72.1565,"MEAN_ANOMALY":287.9718,"EPHEMERIS_TYPE":0,"CLASSIFICATION_TYPE":"U","NORAD_CAT_ID":49196,"ELEMENT_SET_NO":999,"REV_AT_EPOCH":21692,"BSTAR":0.00015807466,"MEAN_MOTION_DOT":7.5e-7,"MEAN_MOTION_DDOT":0},{"OBJECT_NAME":"CZ-4C DEB","OBJECT_ID":"2009-072G","EPOCH":"2026-03-07T02:32:21.156288","MEAN_MOTION":13.05693235,"ECCENTRICITY":0.01348874,"INCLINATION":100.7039,"RA_OF_ASC_NODE":24.1951,"ARG_OF_PERICENTER":333.4489,"MEAN_ANOMALY":87.3103,"EPHEMERIS_TYPE":0,"CLASSIFICATION_TYPE":"U","NORAD_CAT_ID":38659,"ELEMENT_SET_NO":999,"REV_AT_EPOCH":76950,"BSTAR":0.0013369947,"MEAN_MOTION_DOT":4.11e-6,"MEAN_MOTION_DDOT":0}]
